OBJECT_NAME,OBJECT_ID,EPOCH,MEAN_MOTION,ECCENTRICITY,INCLINATION,RA_OF_ASC_NODE,ARG_OF_PERICENTER,MEAN_ANOMALY,EPHEMERIS_TYPE,CLASSIFICATION_TYPE,NORAD_CAT_ID,ELEMENT_SET_NO,REV_AT_EPOCH,BSTAR,MEAN_MOTION_DOT,MEAN_MOTION_DDOT
COSMO-SKYMED 1,2007-023A,2026-06-08T04:17:20.024736,14.97059399,.0001167,97.8858,350.9599,80.4329,279.7024,0,U,31598,999,2844,.18344E-3,.2054E-4,0
COSMOS 2428,2007-029A,2026-06-08T00:15:51.493824,14.12930113,.0007234,70.9375,13.7451,152.6375,207.5129,0,U,31792,999,97685,-.67939E-4,-.174E-5,0
SL-16 R/B,2007-029B,2026-06-07T22:15:12.125088,14.14849857,.0002239,70.9759,342.6951,258.5790,207.0203,0,U,31793,999,97813,.1858E-3,.311E-5,0
KORONAS-FOTON,2009-003A,2026-06-08T03:27:45.811008,15.45535835,.0010686,82.4293,181.6912,177.6280,182.5021,0,U,33504,999,95970,.21396E-3,.10331E-3,0
CZ-2C R/B,2011-030B,2026-06-08T02:47:10.612320,14.81449994,.0053655,97.8652,114.6665,56.9307,314.6355,0,U,37731,999,80348,.18528E-3,.1432E-4,0
H-2A R/B,2012-025E,2026-06-08T04:37:09.161760,14.95666091,.0044313,98.4814,133.5967,18.2206,342.0588,0,U,38341,999,76174,.27472E-3,.3045E-4,0
SHIJIAN-16 (SJ-16),2013-057A,2026-06-08T04:34:34.097952,14.92591453,.0016954,74.9733,13.7231,251.6324,108.3021,0,U,39358,999,68500,.73026E-4,.723E-5,0
SL-4 R/B,2014-021B,2026-06-07T23:45:25.627680,15.41760849,.0091633,51.6060,255.8246,72.5138,288.5837,0,U,39679,999,67019,.25508E-3,.12313E-3,0
ALOS-2,2014-029A,2026-06-08T03:27:21.331296,14.79469616,.0001683,97.9210,256.4371,92.3861,267.7543,0,U,39766,999,65024,.14191E-3,.1008E-4,0
YAOGAN-29,2015-069A,2026-06-08T04:54:31.923360,14.83077028,.0002952,98.0031,187.8233,67.5444,292.6082,0,U,41038,999,56929,.10023E-4,.27E-6,0
ASTRO-H (HITOMI),2016-012A,2026-06-08T04:18:19.298592,15.10471903,.0009613,30.9977,132.3609,163.8172,196.2775,0,U,41337,999,56592,.13578E-3,.2388E-4,0
SAOCOM 1A,2018-076A,2026-06-08T03:46:15.286368,14.82169766,.000154,97.8887,346.0372,79.5659,280.5728,0,U,43641,999,41476,.11077E-3,.83E-5,0
H-2A R/B,2018-084L,2026-06-08T03:01:04.805184,15.44807347,.0024252,98.8591,36.0379,70.7148,289.6716,0,U,43682,999,41972,.48623E-3,.22949E-3,0
SAOCOM 1B,2020-059A,2026-06-08T04:31:17.366016,14.82161537,.0001478,97.8891,345.1621,77.0014,283.1364,0,U,46265,999,31215,-.15609E-4,-.176E-5,0
CSS (TIANHE),2021-035A,2026-06-08T01:57:54.675648,15.60427341,.0008703,41.4696,17.3987,5.5904,354.5031,0,U,48274,999,29174,.30374E-3,.25465E-3,0
COSMOS 2550,2021-056A,2026-06-08T03:44:23.604000,15.33747786,.0008701,67.1417,127.2251,266.1413,93.8746,0,U,48865,999,27733,.19677E-3,.6271E-4,0
CZ-2C R/B,2022-058K,2026-06-07T10:50:06.016992,15.61206771,.0033049,50.1841,214.1517,227.1063,132.7134,0,U,52794,999,22412,.41128E-3,.36142E-3,0
GSLV R/B,2022-138AN,2026-06-07T23:04:22.008576,14.97218104,.0021415,87.3800,136.0828,175.7728,184.3689,0,U,54149,999,19743,.24748E-3,.2904E-4,0
XRISM,2023-137A,2026-06-08T00:24:40.783680,15.12386516,.000792,31.0025,58.9975,233.1431,126.8482,0,U,57800,999,15147,.29986E-3,.5436E-4,0
ACS3,2024-077B,2026-06-08T00:24:49.586976,13.93877753,.0050318,97.1689,79.8534,67.9991,292.6511,0,U,59588,999,10676,.26806E-1,.35871E-3,0
CZ-8A R/B,2025-231K,2026-06-08T00:55:10.454016,14.30152443,.0116477,50.0043,78.2391,191.8063,168.0116,0,U,66004,999,3363,.51075E-4,-.21E-6,0
